{"type": "FeatureCollection", "features": [ {"type": "Feature", "properties": {"norad_id": 39620, "name": "COSMOS 2492 (754)", "group": "gnss", "lat": 50.18287192143623, "lon": -6.923342467779825, "alt_km": 19132.65100143322, "timestamp": "2025-12-27T04:40:45.748288+00:00", "meta": {"OBJECT_NAME": "COSMOS 2492 (754)", "OBJECT_ID": "2014-012A", "EPOCH": "2025-12-26T15:36:55.855008", "MEAN_MOTION": 2.13103318, "ECCENTRICITY": 0.00143264, "INCLINATION": 65.4001, "RA_OF_ASC_NODE": 319.7994, "ARG_OF_PERICENTER": 314.1039, "MEAN_ANOMALY": 45.7823, "EPHEMERIS_TYPE": 0, "CLASSIFICATION_TYPE": "U", "NORAD_CAT_ID": 39620, "ELEMENT_SET_NO": 999, "REV_AT_EPOCH": 9156, "BSTAR": 0, "MEAN_MOTION_DOT": -3.5e-07, "MEAN_MOTION_DDOT": 0}, "tle": {"line1": "1 39620U 14012A   25360.65064647 -.00000035  00000+0  00000+0 0  9999", "line2": "2 39620  65.4001 319.7994 0014326 314.1039  45.7823  2.13103318 91569"}}, "geometry": {"type": "Point", "coordinates": [-6.923342467779825, 50.18287192143623]}}, {"type": "Feature", "properties": {"norad_id": 39635, "name": "IRNSS-1B", "group": "gnss", "lat": -10.610854063798154, "lon": -136.16120892740474, "alt_km": 35862.8890422204, "timestamp": "2025-12-27T04:40:45.748318+00:00", "meta": {"OBJECT_NAME": "IRNSS-1B", "OBJECT_ID": "2014-017A", "EPOCH": "2025-12-26T18:07:21.626688", "MEAN_MOTION": 1.00272789, "ECCENTRICITY": 0.00185522, "INCLINATION": 29.2303, "RA_OF_ASC_NODE": 243.3531, "ARG_OF_PERICENTER": 173.082, "MEAN_ANOMALY": 6.0255, "EPHEMERIS_TYPE": 0, "CLASSIFICATION_TYPE": "U", "NORAD_CAT_ID": 39635, "ELEMENT_SET_NO": 999, "REV_AT_EPOCH": 4306, "BSTAR": 0, "MEAN_MOTION_DOT": 1.37e-06, "MEAN_MOTION_DDOT": 0}, "tle": {"line1": "1 39635U 14017A   25360.75511142  .00000137  00000+0  00000+0 0  9990", "line2": "2 39635  29.2303 243.3531 0018552 173.0820   6.0255  1.00272789 43067"}}, "geometry": {"type": "Point", "coordinates": [-136.16120892740474, -10.610854063798154]}}, {"type": "Feature", "properties": {"norad_id": 39727, "name": "LUCH 5V (SDCM/PRN 141)", "group": "gnss", "lat": -0.7859318302222633, "lon": -99.17992997548895, "alt_km": 35771.15119332988, "timestamp": "2025-12-27T04:40:45.748330+00:00", "meta": {"OBJECT_NAME": "LUCH 5V (SDCM/PRN 141)", "OBJECT_ID": "2014-023A", "EPOCH": "2025-12-26T20:14:04.970976", "MEAN_MOTION": 1.00273298, "ECCENTRICITY": 0.00038328, "INCLINATION": 4.7031, "RA_OF_ASC_NODE": 71.4175, "ARG_OF_PERICENTER": 214.8808, "MEAN_ANOMALY": 207.5564, "EPHEMERIS_TYPE": 0, "CLASSIFICATION_TYPE": "U", "NORAD_CAT_ID": 39727, "ELEMENT_SET_NO": 999, "REV_AT_EPOCH": 4263, "BSTAR": 0, "MEAN_MOTION_DOT": -2.49e-06, "MEAN_MOTION_DDOT": 0}, "tle": {"line1": "1 39727U 14023A   25360.84311309 -.00000249  00000+0  00000+0 0  9997", "line2": "2 39727   4.7031  71.4175 0003832 214.8808 207.5564  1.00273298 42633"}}, "geometry": {"type": "Point", "coordinates": [-99.17992997548895, -0.7859318302222633]}}, {"type": "Feature", "properties": {"norad_id": 39741, "name": "GPS BIIF-6  (PRN 06)", "group": "gnss", "lat": 4.823096548776651, "lon": 155.00953406482168, "alt_km": 20268.385643610345, "timestamp": "2025-12-27T04:40:45.748341+00:00", "meta": {"OBJECT_NAME": "GPS BIIF-6  (PRN 06)", "OBJECT_ID": "2014-026A", "EPOCH": "2025-12-26T22:52:18.643584", "MEAN_MOTION": 2.00560233, "ECCENTRICITY": 0.00395243, "INCLINATION": 56.578, "RA_OF_ASC_NODE": 338.2238, "ARG_OF_PERICENTER": 319.4951, "MEAN_ANOMALY": 40.2191, "EPHEMERIS_TYPE": 0, "CLASSIFICATION_TYPE": "U", "NORAD_CAT_ID": 39741, "ELEMENT_SET_NO": 999, "REV_AT_EPOCH": 8508, "BSTAR": 0, "MEAN_MOTION_DOT": -5.7e-07, "MEAN_MOTION_DDOT": 0}, "tle": {"line1": "1 39741U 14026A   25360.95299356 -.00000057  00000+0  00000+0 0  9992", "line2": "2 39741  56.5780 338.2238 0039524 319.4951  40.2191  2.00560233 85080"}}, "geometry": {"type": "Point", "coordinates": [155.00953406482168, 4.823096548776651]}}, {"type": "Feature", "properties": {"norad_id": 40001, "name": "COSMOS 2500 (755)", "group": "gnss", "lat": -61.041550631186475, "lon": -96.54947158133403, "alt_km": 19128.12298448283, "timestamp": "2025-12-27T04:40:45.748352+00:00", "meta": {"OBJECT_NAME": "COSMOS 2500 (755)", "OBJECT_ID": "2014-032A", "EPOCH": "2025-12-26T08:28:54.444288", "MEAN_MOTION": 2.13106178, "ECCENTRICITY": 0.0007619, "INCLINATION": 65.3358, "RA_OF_ASC_NODE": 319.5702, "ARG_OF_PERICENTER": 219.616, "MEAN_ANOMALY": 140.3327, "EPHEMERIS_TYPE": 0, "CLASSIFICATION_TYPE": "U", "NORAD_CAT_ID": 40001, "ELEMENT_SET_NO": 999, "REV_AT_EPOCH": 8977, "BSTAR": 0, "MEAN_MOTION_DOT": -3.4e-07, "MEAN_MOTION_DDOT": 0}, "tle": {"line1": "1 40001U 14032A   25360.35340792 -.00000034  00000+0  00000+0 0  9990", "line2": "2 40001  65.3358 319.5702 0007619 219.6160 140.3327  2.13106178 89772"}}, "geometry": {"type": "Point", "coordinates": [-96.54947158133403, -61.041550631186475]}}, {"type": "Feature", "properties": {"norad_id": 40105, "name": "GPS BIIF-7  (PRN 09)", "group": "gnss", "lat": 49.37852976516511, "lon": -138.6341789293074, "alt_km": 20090.273361503983, "timestamp": "2025-12-27T04:40:45.748363+00:00", "meta": {"OBJECT_NAME": "GPS BIIF-7  (PRN 09)", "OBJECT_ID": "2014-045A", "EPOCH": "2025-12-23T13:11:32.096256", "MEAN_MOTION": 2.00573211, "ECCENTRICITY": 0.00324114, "INCLINATION": 55.2352, "RA_OF_ASC_NODE": 95.4677, "ARG_OF_PERICENTER": 120.1575, "MEAN_ANOMALY": 240.1743, "EPHEMERIS_TYPE": 0, "CLASSIFICATION_TYPE": "U", "NORAD_CAT_ID": 40105, "ELEMENT_SET_NO": 999, "REV_AT_EPOCH": 8255, "BSTAR": 0, "MEAN_MOTION_DOT": 8e-08, "MEAN_MOTION_DDOT": 0}, "tle": {"line1": "1 40105U 14045A   25357.54967704  .00000008  00000+0  00000+0 0  9994", "line2": "2 40105  55.2352  95.4677 0032411 120.1575 240.1743  2.00573211 82556"}}, "geometry": {"type": "Point", "coordinates": [-138.6341789293074, 49.37852976516511]}}, {"type": "Feature", "properties": {"norad_id": 40128, "name": "GSAT0201 (GALILEO 5)", "group": "gnss", "lat": 6.209207022286842, "lon": 95.0573170870078, "alt_km": 16977.95633645516, "timestamp": "2025-12-27T04:40:45.748374+00:00", "meta": {"OBJECT_NAME": "GSAT0201 (GALILEO 5)", "OBJECT_ID": "2014-050A", "EPOCH": "2025-12-25T20:43:24.583008", "MEAN_MOTION": 1.85519608, "ECCENTRICITY": 0.16491868, "INCLINATION": 49.0615, "RA_OF_ASC_NODE": 280.5285, "ARG_OF_PERICENTER": 172.7701, "MEAN_ANOMALY": 189.9925, "EPHEMERIS_TYPE": 0, "CLASSIFICATION_TYPE": "U", "NORAD_CAT_ID": 40128, "ELEMENT_SET_NO": 999, "REV_AT_EPOCH": 7510, "BSTAR": 0, "MEAN_MOTION_DOT": -4.2e-07, "MEAN_MOTION_DDOT": 0}, "tle": {"line1": "1 40128U 14050A   25359.86347897 -.00000042  00000+0  00000+0 0  9996", "line2": "2 40128  49.0615 280.5285 1649186 172.7701 189.9925  1.85519608 75101"}}, "geometry": {"type": "Point", "coordinates": [95.0573170870078, 6.209207022286842]}}, {"type": "Feature", "properties": {"norad_id": 40129, "name": "GSAT0202 (GALILEO 6)", "group": "gnss", "lat": -0.9824248735682996, "lon": -81.29806365034375, "alt_km": 26196.039087009394, "timestamp": "2025-12-27T04:40:45.748386+00:00", "meta": {"OBJECT_NAME": "GSAT0202 (GALILEO 6)", "OBJECT_ID": "2014-050B", "EPOCH": "2025-12-26T02:52:20.313984", "MEAN_MOTION": 1.85520261, "ECCENTRICITY": 0.1649751, "INCLINATION": 49.0773, "RA_OF_ASC_NODE": 279.6017, "ARG_OF_PERICENTER": 173.5155, "MEAN_ANOMALY": 188.9707, "EPHEMERIS_TYPE": 0, "CLASSIFICATION_TYPE": "U", "NORAD_CAT_ID": 40129, "ELEMENT_SET_NO": 999, "REV_AT_EPOCH": 7727, "BSTAR": 0, "MEAN_MOTION_DOT": -4.2e-07, "MEAN_MOTION_DDOT": 0}, "tle": {"line1": "1 40129U 14050B   25360.11967956 -.00000042  00000+0  00000+0 0  9991", "line2": "2 40129  49.0773 279.6017 1649751 173.5155 188.9707  1.85520261 77273"}}, "geometry": {"type": "Point", "coordinates": [-81.29806365034375, -0.9824248735682996]}}, {"type": "Feature", "properties": {"norad_id": 40269, "name": "IRNSS-1C", "group": "gnss", "lat": 2.3670944288599767, "lon": -110.6506070664813, "alt_km": 35855.60852086775, "timestamp": "2025-12-27T04:40:45.748397+00:00", "meta": {"OBJECT_NAME": "IRNSS-1C", "OBJECT_ID": "2014-061A", "EPOCH": "2025-12-26T18:35:45.832128", "MEAN_MOTION": 1.00272984, "ECCENTRICITY": 0.00181285, "INCLINATION": 6.0777, "RA_OF_ASC_NODE": 92.3405, "ARG_OF_PERICENTER": 0.7543, "MEAN_ANOMALY": 4.3882, "EPHEMERIS_TYPE": 0, "CLASSIFICATION_TYPE": "U", "NORAD_CAT_ID": 40269, "ELEMENT_SET_NO": 999, "REV_AT_EPOCH": 4096, "BSTAR": 0, "MEAN_MOTION_DOT": -1.42e-06, "MEAN_MOTION_DDOT": 0}, "tle": {"line1": "1 40269U 14061A   25360.77483602 -.00000142  00000+0  00000+0 0  9992", "line2": "2 40269   6.0777  92.3405 0018128   0.7543   4.3882  1.00272984 40969"}}, "geometry": {"type": "Point", "coordinates": [-110.6506070664813, 2.3670944288599767]}}, {"type": "Feature", "properties": {"norad_id": 40294, "name": "GPS BIIF-8  (PRN 03)", "group": "gnss", "lat": -17.586386422609568, "lon": -130.457890645922, "alt_km": 20292.824616551494, "timestamp": "2025-12-27T04:40:45.748408+00:00", "meta": {"OBJECT_NAME": "GPS BIIF-8  (PRN 03)", "OBJECT_ID": "2014-068A", "EPOCH": "2025-12-26T10:04:05.409984", "MEAN_MOTION": 2.00565591, "ECCENTRICITY": 0.0060863, "INCLINATION": 56.8679, "RA_OF_ASC_NODE": 37.6169, "ARG_OF_PERICENTER": 68.8991, "MEAN_ANOMALY": 291.813, "EPHEMERIS_TYPE": 0, "CLASSIFICATION_TYPE": "U", "NORAD_CAT_ID": 40294, "ELEMENT_SET_NO": 999, "REV_AT_EPOCH": 8174, "BSTAR": 0, "MEAN_MOTION_DOT": -4.9e-07, "MEAN_MOTION_DDOT": 0}, "tle": {"line1": "1 40294U 14068A   25360.41950706 -.00000049  00000+0  00000+0 0  9998", "line2": "2 40294  56.8679  37.6169 0060863  68.8991 291.8130  2.00565591 81745"}}, "geometry": {"type": "Point", "coordinates": [-130.457890645922, -17.586386422609568]}}]}